,ProviderType,DFTA ID,ProgramName,SponsorName,ProgramAddress,ProgramCity,ProgramState,Postcode,Borough,ProgramPhone,DFTA Funded,MonHourOpen,MonHourClose,TueHourOpen,TueHourClose,WedHourOpen,WedHourClose,ThuHourOpen,ThuHourClose,FriHourOpen,FriHourClose,SatHourOpen,SatHourClose,SunHourOpen,SunHourClose,Latitude,Longitude,Community Board,Council District,Census Tract,BIN,BBL,NTA,Location 1
0,OLDER ADULT CENTER CONTRACTS,C8201,HUDSON GUILD (C82),HUDSON GUILD,119 9th Ave,NEW YORK,NY,10011,MANHATTAN,212-924-6710,Y,09:00,05:00,09:00,05:00,09:00,05:00,09:00,05:00,09:00,05:00,00:00,00:00,00:00,00:00,40.743172,-74.00376,104.0,3.0,83.0,1078418.0,1007150010.0,Hudson Yards-Chelsea-Flatiron-Union Square,POINT (-74.00376 40.743172)
1,CAREGIVER SERVICES CONTRACTS,6K101,HMH – CITYWIDE (6K1),HAMILTON MADISON HOUSE INC,100 Gold Street Lower Level,NEW YORK,NY,10038,MANHATTAN,212-788-5580,Y,07:00,03:00,07:00,03:00,07:00,03:00,07:00,03:00,07:00,03:00,00:00,00:00,00:00,00:00,40.710353,-74.004007,101.0,1.0,1501.0,1001289.0,1000940025.0,Battery Park City-Lower Manhattan,POINT (-74.004007 40.710353)
2,CAREGIVER SERVICES CONTRACTS,2K201,BROOKLYN CAREGIVER RESPITE PROGRAM (2K2),THE JEWISH ASSOCIATION FOR SERVICES FOR THE AGED,161 CORBIN PLACE,BROOKLYN,NY,11235,BROOKLYN,718-934-4180,Y,09:00,05:00,09:00,05:00,09:00,05:00,09:00,05:00,09:00,05:00,00:00,00:00,00:00,00:00,40.578026,-73.954127,315.0,48.0,61004.0,3245719.0,3087190073.0,Brighton Beach,POINT (-73.954127 40.578026)
3,OLDER ADULT CENTER CONTRACTS,C9002,WAYSIDE OUT BROWNSVILLE SOCIAL CLUB (C90),WAYSIDE OUT-REACH DEVELOPMENT INC,528 Mother Gaston Blvd,BROOKLYN,NY,11212,BROOKLYN,347-938-8453,Y,09:00,05:00,09:00,05:00,09:00,05:00,09:00,05:00,09:00,05:00,00:00,00:00,00:00,00:00,40.665956,-73.905923,316.0,41.0,912.0,3325326.0,3035610001.0,Brownsville,POINT (-73.905923 40.665956)
4,CAREGIVER SERVICES CONTRACTS,3K401,HMH – LOWER MANHATTAN (3K4),HAMILTON MADISON HOUSE INC,50 Madison Street,NEW YORK,NY,10038,MANHATTAN,212-788-5580,Y,00:00,00:00,00:00,00:00,00:00,00:00,00:00,00:00,00:00,00:00,00:00,00:00,00:00,00:00,40.711958,-73.997825,103.0,1.0,25.0,1077420.0,1001110100.0,Chinatown,POINT (-73.997825 40.711958)
5,HOME DELIVERED MEAL SERVICE CONTRACTS,42N02,CCNS HDM - QUEENS 2 (42N),CATHOLIC CHARITIES NEIGHBORHOOD SERVICES INC,103-02 101 Avenue,JAMAICA,NY,11416,QUEENS,718-806-1080,Y,08:00,04:00,08:00,04:00,08:00,04:00,08:00,04:00,08:00,04:00,00:00,00:00,00:00,00:00,40.686027,-73.839777,409.0,28.0,112.0,4198392.0,4094210001.0,Richmond Hill,POINT (-73.839777 40.686027)
6,OLDER ADULT CENTER CONTRACTS,C2701,COUNCIL OF PEOPLES ORGANIZATION: HALAL SENIOR CENTER (C27),COUNCIL OF PEOPLES ORGANIZATION INC.,1075-1077 Coney Island Avenue,BROOKLYN,NY,11230,BROOKLYN,718-434-3266,Y,09:00,05:00,09:00,05:00,09:00,05:00,09:00,05:00,09:00,05:00,00:00,00:00,00:00,00:00,40.631169,-73.966466,314.0,45.0,528.0,3178919.0,3066860080.0,Flatbush,POINT (-73.966466 40.631169)
7,OLDER ADULT CENTER CONTRACTS,C4401,INDIA HOME DESI SENIOR CENTER (C44),INDIA HOME INC,178-36 Wexford Terrace Queens NY 11432,JAMAICA,NY,11432,QUEENS,917-825-1559,Y,09:00,05:00,09:00,05:00,09:00,05:00,09:00,05:00,09:00,05:00,00:00,00:00,00:00,00:00,40.713508,-73.784561,408.0,24.0,466.0,4534092.0,4099377501.0,Jamaica Estates-Holliswood,POINT (-73.784561 40.713508)
8,HOME DELIVERED MEAL SERVICE CONTRACTS,42N03,CCNS HDM - QUEENS 3 (42N),CATHOLIC CHARITIES NEIGHBORHOOD SERVICES INC,91-34 182 Place,JAMAICA,NY,11423,QUEENS,718-806-1080,Y,08:00,04:00,08:00,04:00,08:00,04:00,08:00,04:00,08:00,04:00,00:00,00:00,00:00,00:00,40.709634,-73.778431,412.0,27.0,470.0,4211802.0,4099000001.0,Jamaica,POINT (-73.778431 40.709634)
9,HOME DELIVERED MEAL SERVICE CONTRACTS,46S01,FLORENCE E. SMITH SENIOR SERVICES (46S),CORONA CONGREGATIONAL CHURCH,102-19 34TH AVENUE,FLUSHING,NY,11368,QUEENS,718-899-0553,Y,,,,,,,,,,,,,,,40.755742,-73.865988,403.0,21.0,379.0,4042602.0,4017170033.0,North Corona,POINT (-73.865988 40.755742)
10,HOME DELIVERED MEAL SERVICE CONTRACTS,24E01,JASA BROOKLYN HOME DELIVERED MEALS - BROOKLYN 6 (24E),THE JEWISH ASSOCIATION FOR SERVICES FOR THE AGED,1201 PENNSYLVANIA AVENUE,BROOKLYN,NY,11239,BROOKLYN,718-769-7455,Y,09:00,05:00,09:00,05:00,09:00,05:00,09:00,05:00,09:00,05:00,00:00,00:00,00:00,00:00,40.651173,-73.885082,305.0,42.0,105801.0,3336175.0,3044350001.0,Starrett City,POINT (-73.885082 40.651173)
11,OLDER ADULT CENTER CONTRACTS,C5502,POLISH AND SLAVIC CENTER INC (C55),POLISH & SLAVIC CENTER INC,103 East 7th Street,NEW YORK,NY,10009,MANHATTAN,212-673-7704,Y,09:00,05:00,09:00,05:00,09:00,05:00,09:00,05:00,09:00,05:00,00:00,00:00,00:00,00:00,40.726683,-73.985016,103.0,2.0,32.0,1005851.0,1004350049.0,East Village,POINT (-73.985016 40.726683)
12,HOME DELIVERED MEAL SERVICE CONTRACTS,42N01,CCNS HDM - QUEENS 1 (42N),CATHOLIC CHARITIES NEIGHBORHOOD SERVICES INC,89-18 Astoria Boulevard,FLUSHING,NY,11369,QUEENS,718-806-1080,Y,08:00,04:00,08:00,04:00,08:00,04:00,08:00,04:00,08:00,04:00,00:00,00:00,00:00,00:00,40.763727,-73.87957,403.0,22.0,329.0,4032388.0,4013630011.0,Jackson Heights,POINT (-73.87957 40.763727)
13,HOME DELIVERED MEAL SERVICE CONTRACTS,28E03,RISEBORO HDM - BROOKLYN 3 (28E),RISEBORO COMMUNITY PARTNERSHIP INC,80 Seigel Street,BROOKLYN,NY,11206,BROOKLYN,718-416-4599,Y,09:00,05:00,09:00,05:00,09:00,05:00,09:00,05:00,09:00,05:00,00:00,00:00,00:00,00:00,40.704366,-73.943775,301.0,34.0,491.0,3071447.0,3030960030.0,East Williamsburg,POINT (-73.943775 40.704366)
14,TRANSPORTATION SERVICES CONTRACTS,10601,MID-BRONX - TRAN INDIVIDUAL RIDES - BX SOUTH (106),MID BRONX SENIOR CITIZENS COUNCIL INC,900 Grand Concourse,BRONX,NY,10451,BRONX,718-588-8200,Y,08:00,04:00,08:00,04:00,08:00,04:00,08:00,04:00,08:00,04:00,00:00,00:00,00:00,00:00,40.827412,-73.922277,204.0,16.0,18301.0,2002802.0,2024600001.0,East Concourse-Concourse Village,POINT (-73.922277 40.827412)
15,HOME DELIVERED MEAL SERVICE CONTRACTS,24E02,JASA BROOKLYN HOME DELIVERED MEALS - BROOKLYN 7 (24E),THE JEWISH ASSOCIATION FOR SERVICES FOR THE AGED,1201 PENNSYLVANIA AVENUE,BROOKLYN,NY,11239,BROOKLYN,718-727-443,Y,09:00,05:00,09:00,05:00,09:00,05:00,09:00,05:00,09:00,05:00,00:00,00:00,00:00,00:00,40.651173,-73.885082,305.0,42.0,105801.0,3336175.0,3044350001.0,Starrett City,POINT (-73.885082 40.651173)
16,HOME DELIVERED MEAL SERVICE CONTRACTS,28E01,RISEBORO HDM - BROOKLYN 1 (28E),RISEBORO COMMUNITY PARTNERSHIP INC,80 Seigel Street,BROOKLYN,NY,11206,BROOKLYN,718-416-4599,Y,09:00,05:00,09:00,05:00,09:00,05:00,09:00,05:00,09:00,05:00,00:00,00:00,00:00,00:00,40.704366,-73.943775,301.0,34.0,491.0,3071447.0,3030960030.0,East Williamsburg,POINT (-73.943775 40.704366)
17,HOME DELIVERED MEAL SERVICE CONTRACTS,28E04,RISEBORO HDM - BROOKLYN 4 (28E),RISEBORO COMMUNITY PARTNERSHIP INC,80 Seigel Street,BROOKLYN,NY,11206,BROOKLYN,718-416-4599,Y,09:00,05:00,09:00,05:00,09:00,05:00,09:00,05:00,09:00,05:00,00:00,00:00,00:00,00:00,40.704366,-73.943775,301.0,34.0,491.0,3071447.0,3030960030.0,East Williamsburg,POINT (-73.943775 40.704366)
18,HOME DELIVERED MEAL SERVICE CONTRACTS,11Y02,SENIOR OPTION HOME DELIVERY MEALS PROGRAM - BRONX 3 (11Y),REGIONAL AID FOR INTERIM NEEDS INC,3450 Boston Road,BRONX,NY,10469,BRONX,718-829-2131,Y,09:00,05:00,09:00,05:00,09:00,05:00,09:00,05:00,09:00,05:00,00:00,00:00,00:00,00:00,40.876304,-73.848594,212.0,12.0,364.0,2060739.0,2047370105.0,Eastchester-Edenwald-Baychester,POINT (-73.848594 40.876304)
19,OLDER ADULT CENTER CONTRACTS,C8301,JASA HES OLDER ADULT CENTER (C83),THE JEWISH ASSOCIATION FOR SERVICES FOR THE AGED,2705 Schley Avenue,BRONX,NY,10465,BRONX,718-251-3700,Y,08:00,04:00,08:00,04:00,08:00,04:00,08:00,04:00,08:00,04:00,00:00,00:00,00:00,00:00,40.821662,-73.827061,210.0,13.0,144.0,2080423.0,2055680050.0,Schuylerville-Throgs Neck-Edgewater Park,POINT (-73.827061 40.821662)
20,HOME DELIVERED MEAL SERVICE CONTRACTS,28E02,RISEBORO HDM - BROOKLYN 2 (28E),RISEBORO COMMUNITY PARTNERSHIP INC,80 Seigel Street,BROOKLYN,NY,11206,BROOKLYN,718-416-4599,Y,09:00,05:00,09:00,05:00,09:00,05:00,09:00,05:00,09:00,05:00,00:00,00:00,00:00,00:00,40.704366,-73.943775,301.0,34.0,491.0,3071447.0,3030960030.0,East Williamsburg,POINT (-73.943775 40.704366)
21,HOME DELIVERED MEAL SERVICE CONTRACTS,11Y01,SENIOR OPTION HOME DELIVERY MEALS PROGRAM - BRONX 2 (11Y),REGIONAL AID FOR INTERIM NEEDS INC,3450 Boston Road,BRONX,NY,10469,BRONX,718-829-2131,Y,09:00,05:00,09:00,05:00,09:00,05:00,09:00,05:00,09:00,05:00,00:00,00:00,00:00,00:00,40.876304,-73.848594,212.0,12.0,364.0,2060739.0,2047370105.0,Eastchester-Edenwald-Baychester,POINT (-73.848594 40.876304)
22,OLDER ADULT CENTER CONTRACTS,C4101,HENRY STREET OAC - GOOD COMPANIONS (C41),HENRY STREET SETTLEMENT,334 Madison Street,NEW YORK,NY,10002,MANHATTAN,212-349-2770,Y,09:00,05:00,09:00,05:00,09:00,05:00,09:00,05:00,09:00,05:00,00:00,00:00,00:00,00:00,40.713266,-73.983237,103.0,2.0,202.0,1077526.0,1002600001.0,Lower East Side,POINT (-73.983237 40.713266)
23,CASE MANAGEMENT SERVICES CONTRACTS,2MP01,RISEBORO - CMA - BK01 03 04 (2MP),RISEBORO COMMUNITY PARTNERSHIP INC,1175 Gates Avenue,BROOKLYN,NY,11221,BROOKLYN,929-563-5580,Y,09:00,05:00,09:00,05:00,09:00,05:00,09:00,05:00,09:00,05:00,00:00,00:00,00:00,00:00,40.691707,-73.919907,304.0,34.0,399.0,3076253.0,3033310025.0,Bushwick South,POINT (-73.919907 40.691707)
24,OLDER ADULT CENTER CONTRACTS,C8312,JASA LUNA PARK ANNEX (C83),THE JEWISH ASSOCIATION FOR SERVICES FOR THE AGED,2880 West 12th Street,BROOKLYN,NY,11224,BROOKLYN,718-388-6865,Y,08:00,04:00,08:00,04:00,08:00,04:00,08:00,04:00,08:00,04:00,00:00,00:00,00:00,00:00,40.577347,-73.979625,313.0,47.0,350.0,3196559.0,3072660060.0,West Brighton,POINT (-73.979625 40.577347)
25,TRANSPORTATION SERVICES CONTRACTS,30902,ARC XVI - TRAN GROUP RIDES - MN NORTH (309),ARC XVI FORT WASHINGTON INC,108 WEST  146 STREET,NEW YORK,NY,10039,MANHATTAN,212-281-1349,Y,09:00,05:00,09:00,05:00,09:00,05:00,09:00,05:00,09:00,05:00,00:00,00:00,00:00,00:00,40.821341,-73.936317,110.0,9.0,232.0,1060189.0,1020140036.0,Central Harlem North-Polo Grounds,POINT (-73.936317 40.821341)
26,OLDER ADULT CENTER CONTRACTS,C9004,WAYSIDE OUT LANGSTON HUGHES SOCIAL CLUB (C90),WAYSIDE OUT-REACH DEVELOPMENT INC,301 Sutter Avenue,BROOKLYN,NY,11212,BROOKLYN,917-962-8277,Y,09:00,05:00,09:00,05:00,09:00,05:00,09:00,05:00,09:00,05:00,00:00,00:00,00:00,00:00,40.667312,-73.909072,316.0,41.0,906.0,3348344.0,3035260021.0,Brownsville,POINT (-73.909072 40.667312)
27,NATURALLY OCCURING RETIREMENT COMMUNITY CONTRACTS,N6101,SAMUEL FIELD Y CLEARVIEW GARDENS NORC (N61),SAMUEL FIELD YM & YWHA INC,163-59 17TH AVENUE,FLUSHING,NY,11357,QUEENS,718-352-4157,Y,09:00,05:00,09:00,05:00,09:00,05:00,09:00,05:00,09:00,05:00,00:00,00:00,00:00,00:00,40.782976,-73.798982,407.0,19.0,1017.0,4444920.0,4057300001.0,Ft. Totten-Bay Terrace-Clearview,POINT (-73.798982 40.782976)
28,OLDER ADULT CENTER CONTRACTS,C4704,JCCGCI KINGS HIGHWAY OLDER ADULT CENTER (C47),JEWISH COMMUNITY COUNCIL OF GREATER CONEY ISLAND INC,1879 East 3rd Street,BROOKLYN,NY,11223,BROOKLYN,917-596-0761,Y,09:00,05:00,09:00,05:00,09:00,05:00,09:00,05:00,09:00,05:00,00:00,00:00,00:00,00:00,40.604098,-73.969944,315.0,47.0,41402.0,3178594.0,3066810225.0,Homecrest,POINT (-73.969944 40.604098)
29,OLDER ADULT CENTER CONTRACTS,C0201,ALLEN AME THEODORA JACKSON CENTER (C02),ALLEN AME CHURCH dba ALLEN COMMUNITY SENIOR CITIZENS CENTER,92-47 165th St Jamaica NY 11433,JAMAICA,NY,11433,QUEENS,929-357-9552,Y,09:00,05:00,09:00,05:00,09:00,05:00,09:00,05:00,09:00,05:00,00:00,00:00,00:00,00:00,40.704457,-73.794108,412.0,27.0,444.0,4216225.0,4101550029.0,Jamaica,POINT (-73.794108 40.704457)
30,NATURALLY OCCURING RETIREMENT COMMUNITY CONTRACTS,N5901,FOREST HILLS COMMUNITY HOUSE NORC (N59),QUEENS COMMUNITY HOUSE INC.,108-03 62ND DRIVE,FLUSHING,NY,11375,QUEENS,718-760-5231,Y,09:00,05:00,09:00,05:00,09:00,05:00,09:00,05:00,09:00,05:00,00:00,00:00,00:00,00:00,40.735716,-73.850833,406.0,29.0,745.0,4432109.0,4021590002.0,Forest Hills,POINT (-73.850833 40.735716)
31,NATURALLY OCCURING RETIREMENT COMMUNITY CONTRACTS,N6202,SELFHELP BIG SIX NORC (N62),SELFHELP COMMUNITY SERVICES INC,61-10 QUEENS BLVD.,FLUSHING,NY,11377,QUEENS,718-565-6569,Y,09:00,05:00,09:00,05:00,09:00,05:00,09:00,05:00,09:00,05:00,00:00,00:00,00:00,00:00,40.741347,-73.903226,402.0,26.0,245.0,4437383.0,4023140100.0,Woodside,POINT (-73.903226 40.741347)
32,NATURALLY OCCURING RETIREMENT COMMUNITY CONTRACTS,N6204,SELFHELP FRESH MEADOWS NORC (N62),SELFHELP COMMUNITY SERVICES INC,67-00 192ND STREET,FLUSHING,NY,11365,QUEENS,718-559-4330,Y,09:00,05:00,09:00,05:00,09:00,05:00,09:00,05:00,09:00,05:00,00:00,00:00,00:00,00:00,40.737813,-73.781534,408.0,23.0,1347.0,4444040.0,4071170003.0,Fresh Meadows-Utopia,POINT (-73.781534 40.737813)
33,NATURALLY OCCURING RETIREMENT COMMUNITY CONTRACTS,N6203,SELFHELP NORTHRIDGE 11-BRULENE NORC (N62),SELFHELP COMMUNITY SERVICES INC,33-45 90TH STREET,FLUSHING,NY,11372,QUEENS,718-396-5425,Y,09:00,05:00,09:00,05:00,09:00,05:00,09:00,05:00,09:00,05:00,00:00,00:00,00:00,00:00,40.75489,-73.877655,403.0,25.0,277.0,4431400.0,4014380001.0,Jackson Heights,POINT (-73.877655 40.75489)
34,OLDER ADULT CENTER CONTRACTS,C7204,RAICES BLAND SOCIAL CLUB (C72),SPANISH SPEAKING ELDERLY COUNCIL RAICES INC.,40-15 College Point Blvd,FLUSHING,NY,11354,QUEENS,718-694-0895,Y,09:00,05:00,09:00,05:00,09:00,05:00,09:00,05:00,09:00,05:00,00:00,00:00,00:00,00:00,40.757803,-73.83414,407.0,20.0,871.0,4443443.0,4050370008.0,Flushing,POINT (-73.83414 40.757803)
35,NATURALLY OCCURING RETIREMENT COMMUNITY CONTRACTS,N6802,JASA BUSHWICK HYLAN NORC (N68),THE JEWISH ASSOCIATION FOR SERVICES FOR THE AGED,50 Humboldt Street,BROOKLYN,NY,11206,BROOKLYN,718-408-7532,Y,09:00,05:00,09:00,05:00,09:00,05:00,09:00,05:00,09:00,05:00,00:00,00:00,00:00,00:00,40.703179,-73.940761,301.0,34.0,489.0,3338434.0,3031290001.0,Bushwick South,POINT (-73.940761 40.703179)
36,NATURALLY OCCURING RETIREMENT COMMUNITY CONTRACTS,N6201,SELFHELP BOULEVARD GARDENS NORC (N62),SELFHELP COMMUNITY SERVICES INC,51-42 30th AVENUE,FLUSHING,NY,11377,QUEENS,646-648-3202,Y,09:00,05:00,09:00,05:00,09:00,05:00,09:00,05:00,09:00,05:00,00:00,00:00,00:00,00:00,40.759516,-73.904993,401.0,22.0,295.0,4431254.0,4011110001.0,Woodside,POINT (-73.904993 40.759516)
37,OLDER ADULT CENTER CONTRACTS,C1202,BCA DYKER HEIGHTS OLDER ADULT CENTER (C12),BROOKLYN CHINESE-AMERICAN ASSOCIATION INC,TBD -- 6521 8th AVE OR 911 66th St Broo,BROOKLYN,NY,11219,BROOKLYN,718-622-3333,Y,09:00,05:00,09:00,05:00,09:00,05:00,09:00,05:00,09:00,05:00,00:00,00:00,00:00,00:00,,,,,,,,,
38,NATURALLY OCCURING RETIREMENT COMMUNITY CONTRACTS,N5101,CENTER LIGHT PARKCHESTER ENHANCED NORC (N51),CENTERLIGHT HEALTH SYSTEM INC.,1525 Unionport Road,BRONX,NY,10462,BRONX,718-409-1619,Y,09:00,05:00,09:00,05:00,09:00,05:00,09:00,05:00,09:00,05:00,00:00,00:00,00:00,00:00,40.836585,-73.856898,209.0,18.0,212.0,2096653.0,2039387501.0,Parkchester,POINT (-73.856898 40.836585)
39,NATURALLY OCCURING RETIREMENT COMMUNITY CONTRACTS,N6901,NEIGHBORHOOD SHOPP NORC -LAFAYETTE ESTATES (N69),THE NEIGHBORHOOD SELF-HELP BY OLDER PERSONS PROJECT INC,953 SOUTHERN BLVD,BRONX,NY,10459,BRONX,718-542-0006,Y,09:00,05:00,09:00,05:00,09:00,05:00,09:00,05:00,09:00,05:00,00:00,00:00,00:00,00:00,40.82084,-73.872649,209.0,17.0,28.0,2092725.0,2036270030.0,Soundview-Castle Hill-Clason Point-Harding Park,POINT (-73.872649 40.82084)
40,OLDER ADULT CENTER CONTRACTS,C2101,CPC BROOKLYN SENIOR CENTER (C21),CHINESE AMERICAN PLANNING COUNCIL INC,4101 8th Ave,BROOKLYN,NY,11232,BROOKLYN,917-922-8382,Y,09:00,05:00,09:00,05:00,09:00,05:00,09:00,05:00,09:00,05:00,00:00,00:00,00:00,00:00,40.64607,-73.998544,312.0,38.0,92.0,3018218.0,3009230009.0,Sunset Park East,POINT (-73.998544 40.64607)
41,OLDER ADULT CENTER CONTRACTS,C7205,TIMES PLAZA CENTER OAC (C72),SPANISH SPEAKING ELDERLY COUNCIL RAICES INC.,460 Atlantic Avenue,BROOKLYN,NY,11217,BROOKLYN,718-694-0895,Y,09:00,05:00,09:00,05:00,09:00,05:00,09:00,05:00,09:00,05:00,00:00,00:00,00:00,00:00,40.686296,-73.983223,302.0,33.0,41.0,3000937.0,3001840025.0,DUMBO-Vinegar Hill-Downtown Brooklyn-Boerum Hill,POINT (-73.983223 40.686296)
42,NATURALLY OCCURING RETIREMENT COMMUNITY CONTRACTS,N6301,SPRING CREEK NORC (N63),SPRING CREEK SENIOR PARTNERS INC,160 SCHROEDERS AVENUE,BROOKLYN,NY,11239,BROOKLYN,718-348-7620,Y,09:00,05:00,09:00,05:00,09:00,05:00,09:00,05:00,09:00,05:00,00:00,00:00,00:00,00:00,40.648735,-73.879612,305.0,42.0,1058.0,3343606.0,3044520200.0,Starrett City,POINT (-73.879612 40.648735)
43,NATURALLY OCCURING RETIREMENT COMMUNITY CONTRACTS,N5401,HANAC QUEENSVIEW NORC (N54),HANAC INC.,33-34 Crescent Street,LONG ISLAND CITY,NY,11106,QUEENS,718-433-9045,Y,09:00,05:00,09:00,05:00,09:00,05:00,09:00,05:00,09:00,05:00,00:00,00:00,00:00,00:00,40.762105,-73.929717,401.0,22.0,45.0,4430862.0,4005570003.0,Astoria,POINT (-73.929717 40.762105)
44,OLDER ADULT CENTER CONTRACTS,C9302,YOUNG AT HEART SENIOR CENTER AT THE FLATBUSH YMCA (C93),YMCA OF GREATER NEW YORK,1401 Flatbush Avenue,BROOKLYN,NY,11210,BROOKLYN,212-630-9645,Y,09:00,05:00,09:00,05:00,09:00,05:00,09:00,05:00,09:00,05:00,00:00,00:00,00:00,00:00,40.636511,-73.951539,314.0,45.0,788.0,3120877.0,3052280008.0,Flatbush,POINT (-73.951539 40.636511)
45,NATURALLY OCCURING RETIREMENT COMMUNITY CONTRACTS,N6801,JASA CO OP CITY NORC (N68),THE JEWISH ASSOCIATION FOR SERVICES FOR THE AGED,2049 Bartow Avenue,BRONX,NY,10475,BRONX,718-320-2066,Y,09:00,05:00,09:00,05:00,09:00,05:00,09:00,05:00,09:00,05:00,00:00,00:00,00:00,00:00,40.86942,-73.829027,210.0,12.0,46201.0,2097466.0,2051410100.0,Co-op City,POINT (-73.829027 40.86942)
46,OLDER ADULT CENTER CONTRACTS,C7401,PROSPECT HILL NSC (C74),ST JOHN ST MATTHEW EMANUEL LUTHERAN CHURCH,283 Prospect Avenue,BROOKLYN,NY,11215,BROOKLYN,718-726--964,Y,09:00,05:00,09:00,05:00,09:00,05:00,09:00,05:00,09:00,05:00,00:00,00:00,00:00,00:00,40.663323,-73.989165,307.0,39.0,141.0,3337801.0,3010530073.0,Park Slope-Gowanus,POINT (-73.989165 40.663323)
47,NATURALLY OCCURING RETIREMENT COMMUNITY CONTRACTS,N6805,JASA TRUMPS UNITED NORC (N68),THE JEWISH ASSOCIATION FOR SERVICES FOR THE AGED,458 NEPTUNE AVENUE,BROOKLYN,NY,11224,BROOKLYN,718-372-8815,Y,09:00,05:00,09:00,05:00,09:00,05:00,09:00,05:00,09:00,05:00,00:00,00:00,00:00,00:00,40.579782,-73.970866,313.0,48.0,356.0,3196580.0,3072740001.0,West Brighton,POINT (-73.970866 40.579782)
48,NATURALLY OCCURING RETIREMENT COMMUNITY CONTRACTS,N5601,ISABELLA GERIATRIC FT GEORGE VISTAS NORC (N56),ISABELLA GERIATRIC CENTER INC,17 FT. GEORGE HILL,NEW YORK,NY,10040,MANHATTAN,212-304-1064,Y,09:00,05:00,09:00,05:00,09:00,05:00,09:00,05:00,09:00,05:00,00:00,00:00,00:00,00:00,40.8577,-73.927505,112.0,10.0,283.0,1064067.0,1021700131.0,Washington Heights North,POINT (-73.927505 40.8577)
49,OLDER ADULT CENTER CONTRACTS,C0804,BERGEN BASIN MIDWOOD OLDER ADULT CENTER (C08),BERGEN BASIN COMMUNITY DEVELOPMENT CORPORATION DBA MILLENNIU,2164 Ralph Avenue,BROOKLYN,NY,11234,BROOKLYN,718-253-5557,Y,09:00,05:00,09:00,05:00,09:00,05:00,09:00,05:00,09:00,05:00,00:00,00:00,00:00,00:00,40.625065,-73.917858,318.0,46.0,692.0,3218178.0,3078390001.0,Flatlands,POINT (-73.917858 40.625065)
50,NATURALLY OCCURING RETIREMENT COMMUNITY CONTRACTS,N6803,JASA CONEY ISLAND ACTIVE AGING NORC (N68),THE JEWISH ASSOCIATION FOR SERVICES FOR THE AGED,2950 WEST 35TH STREET,BROOKLYN,NY,11224,BROOKLYN,718-943-7812,Y,09:00,05:00,09:00,05:00,09:00,05:00,09:00,05:00,09:00,05:00,00:00,00:00,00:00,00:00,40.573838,-74.000493,313.0,47.0,342.0,3189511.0,3070460022.0,Seagate-Coney Island,POINT (-74.000493 40.573838)
51,NATURALLY OCCURING RETIREMENT COMMUNITY CONTRACTS,N6102,SAMUEL FIELD Y DEEPDALE GARDENS NORC (N61),SAMUEL FIELD YM & YWHA INC,57-17 Marathon Parkway,FLUSHING,NY,11362,QUEENS,718-225-3929,Y,09:00,05:00,09:00,05:00,09:00,05:00,09:00,05:00,09:00,05:00,00:00,00:00,00:00,00:00,40.75942,-73.731285,411.0,23.0,152902.0,4459800.0,4083370001.0,Douglas Manor-Douglaston-Little Neck,POINT (-73.731285 40.75942)
52,NATURALLY OCCURING RETIREMENT COMMUNITY CONTRACTS,N6804,JASA WARBASSE CARES NORC (N68),THE JEWISH ASSOCIATION FOR SERVICES FOR THE AGED,2844 OCEAN PARKWAY,BROOKLYN,NY,11235,BROOKLYN,718-996-5200,Y,09:00,05:00,09:00,05:00,09:00,05:00,09:00,05:00,09:00,05:00,00:00,00:00,00:00,00:00,40.580542,-73.968428,313.0,47.0,356.0,3320735.0,3072530001.0,West Brighton,POINT (-73.968428 40.580542)
53,NATURALLY OCCURING RETIREMENT COMMUNITY CONTRACTS,N7401,AMALGAMATED PK RESEVOIR NORC (N74),YM YWHA OF THE BRONX dba RIVERDALE YM YWHA,98 VAN CORTLANDT PARK SOUTH,BRONX,NY,10463,BRONX,718-548-4990,Y,09:00,05:00,09:00,05:00,09:00,05:00,09:00,05:00,09:00,05:00,00:00,00:00,00:00,00:00,40.905009,-73.907133,208.0,11.0,323.0,2086312.0,2059520374.0,North Riverdale-Fieldston-Riverdale,POINT (-73.907133 40.905009)
54,OLDER ADULT CENTER CONTRACTS,C5604,QCH QUEENS CENTER FOR GAY SENIORS (QCGS) OAC (C56),QUEENS COMMUNITY HOUSE INC.,37-06 77th Street,FLUSHING,NY,11372,QUEENS,718-533-6459,Y,09:00,05:00,09:00,05:00,09:00,05:00,09:00,05:00,09:00,05:00,00:00,00:00,00:00,00:00,40.748907,-73.88902,403.0,25.0,287.0,4029864.0,4012870010.0,Jackson Heights,POINT (-73.88902 40.748907)
55,NATURALLY OCCURING RETIREMENT COMMUNITY CONTRACTS,N6001,ROCHDALE VILLAGE NORC (N60),ROCHDALE VILLAGE SOCIAL SERVICES INC,169-65 137TH AVENUE,JAMAICA,NY,11434,QUEENS,718-286-1541,Y,09:00,05:00,09:00,05:00,09:00,05:00,09:00,05:00,09:00,05:00,00:00,00:00,00:00,00:00,40.672622,-73.770641,412.0,28.0,33402.0,4436348.0,4124950002.0,Springfield Gardens North,POINT (-73.770641 40.672622)
56,NATURALLY OCCURING RETIREMENT COMMUNITY CONTRACTS,N7301,VISION URBANA NORC (N73),VISION URBANA INC.,75 DELANCEY STREET,NEW YORK,NY,10002,MANHATTAN,646-626-9748,Y,09:00,05:00,09:00,05:00,09:00,05:00,09:00,05:00,09:00,05:00,00:00,00:00,00:00,00:00,40.717466,-73.985004,103.0,1.0,1402.0,1089451.0,1003477501.0,Lower East Side,POINT (-73.985004 40.717466)
57,OLDER ADULT CENTER CONTRACTS,C1102,BRONXWORKS E. ROBERTS MOORE OAC (C11),BRONXWORKS INC,515 Jackson Avenue,BRONX,NY,10455,BRONX,718-665-5559,Y,08:00,04:00,08:00,04:00,08:00,04:00,08:00,04:00,08:00,04:00,00:00,00:00,00:00,00:00,40.812353,-73.909401,201.0,8.0,35.0,2091284.0,2025570083.0,Mott Haven-Port Morris,POINT (-73.909401 40.812353)
58,OLDER ADULT CENTER CONTRACTS,W1503,INDEPENDENCE PLAZA (W15),GREENWICH HOUSE INC.,310 Greenwich Street,NEW YORK,NY,10013,MANHATTAN,212-267-0499,Y,09:00,05:00,09:00,05:00,09:00,05:00,09:00,05:00,09:00,05:00,00:00,00:00,00:00,00:00,40.717604,-74.010667,101.0,1.0,39.0,1083243.0,1001420025.0,SoHo-TriBeCa-Civic Center-Little Italy,POINT (-74.010667 40.717604)
59,ELDER ABUSE SERVICES CONTRACTS,1E401,JASA - ELDER JUSTICE - BK NORTH (1E4),THE JEWISH ASSOCIATION FOR SERVICES FOR THE AGED,202 Graham Avenue,BROOKLYN,NY,11206,BROOKLYN,212-273-5200,Y,09:00,05:00,09:00,05:00,09:00,05:00,09:00,05:00,09:00,05:00,00:00,00:00,00:00,00:00,40.708879,-73.943443,301.0,34.0,493.0,3344974.0,3030260001.0,Bushwick South,POINT (-73.943443 40.708879)
60,OLDER ADULT CENTER CONTRACTS,C5301,OCEAN BAY CDC OLDER ADULT CENTER (C53),OCEAN BAY COMMUNITY DEVELOPMENT CORPORATION,57-17 Shore Front Parkway,FAR ROCKAWAY,NY,11693,QUEENS,718-945-8640,Y,08:00,04:00,08:00,04:00,08:00,04:00,08:00,04:00,08:00,04:00,00:00,00:00,00:00,00:00,40.588954,-73.78843,414.0,31.0,97202.0,4536732.0,4159260001.0,Hammels-Arverne-Edgemere,POINT (-73.78843 40.588954)
61,OLDER ADULT CENTER CONTRACTS,C6904,EDIE WINDSOR SAGE CENTER (C69),SERVICES AND ADVOCACY FOR GAYLESBIANBISEXUAL AND TRANSGEND,305 7th Avenue,NEW YORK,NY,10001,MANHATTAN,646-576-8669,Y,11:00,08:00,11:00,08:00,11:00,08:00,11:00,08:00,11:00,08:00,00:00,00:00,00:00,00:00,40.746817,-73.993655,105.0,3.0,95.0,1015060.0,1008037502.0,Midtown-Midtown South,POINT (-73.993655 40.746817)
62,OLDER ADULT CENTER CONTRACTS,W2404,WAGNER SATELLITE (W24),UNION SETTLEMENT ASSOCIATION,435 East 120th Street,NEW YORK,NY,10035,MANHATTAN,212-987-2980,Y,09:00,05:00,09:00,05:00,09:00,05:00,09:00,05:00,09:00,05:00,00:00,00:00,00:00,00:00,40.798041,-73.932186,111.0,8.0,192.0,1081287.0,1018080001.0,East Harlem North,POINT (-73.932186 40.798041)
63,HOME DELIVERED MEAL SERVICE CONTRACTS,42G01,JASA HDM QN14 (42G),THE JEWISH ASSOCIATION FOR SERVICES FOR THE AGED,131 Beach 19th Street,FAR ROCKAWAY,NY,11691,QUEENS,718-769-7455,Y,09:00,05:00,09:00,05:00,09:00,05:00,09:00,05:00,09:00,05:00,00:00,00:00,00:00,00:00,40.593761,-73.753207,414.0,31.0,99802.0,4301622.0,4158100055.0,Far Rockaway-Bayswater,POINT (-73.753207 40.593761)
64,OLDER ADULT CENTER CONTRACTS,C1104,BRONXWORKS HEIGHTS SC (C11),BRONXWORKS INC,200 West Tremont Avenue Bronx NY 10453,BRONX,NY,10453,BRONX,718-299-0300,Y,08:00,04:00,08:00,04:00,08:00,04:00,08:00,04:00,08:00,04:00,00:00,00:00,00:00,00:00,40.851984,-73.916804,205.0,14.0,20502.0,2008966.0,2028770522.0,University Heights-Morris Heights,POINT (-73.916804 40.851984)
65,CASE MANAGEMENT SERVICES CONTRACTS,4MD01,QCH CMA QN 4 6 (4MD),QUEENS COMMUNITY HOUSE INC.,107-20 71 Road,FLUSHING,NY,11375,QUEENS,718-592-5757,Y,09:00,05:00,09:00,05:00,09:00,05:00,09:00,05:00,09:00,05:00,00:00,00:00,00:00,00:00,40.720067,-73.843469,406.0,29.0,737.0,4533735.0,4032577501.0,Forest Hills,POINT (-73.843469 40.720067)
66,CAREGIVER SERVICES CONTRACTS,1K101,PSS - CAREGIVER - BX01-08 (1K1),PRESBYTERIAN SENIOR SERVICES,325 EAST 156 STREET,BRONX,NY,10451,BRONX,212-222-3132,Y,08:00,04:00,08:00,04:00,08:00,04:00,08:00,04:00,08:00,04:00,00:00,00:00,00:00,00:00,40.821439,-73.917995,201.0,17.0,69.0,2091224.0,2024160001.0,Melrose South-Mott Haven North,POINT (-73.917995 40.821439)
67,TRANSPORTATION SERVICES CONTRACTS,53801,CASC - TRAN INDIVIDUAL RIDES - STATEN ISLAND (538),COMMUNITY AGENCY FOR SENIOR CITIZENS INC,120 Stuyvesant Place Suite 409,STATEN ISLAND,NY,10301,STATEN ISLAND,718-981-6226,Y,08:00,04:00,08:00,04:00,08:00,04:00,08:00,04:00,08:00,04:00,00:00,00:00,00:00,00:00,40.642992,-74.076954,501.0,49.0,3.0,5000084.0,5000080060.0,West New Brighton-New Brighton-St. George,POINT (-74.076954 40.642992)
68,OLDER ADULT CENTER CONTRACTS,W1907,PSS KING TOWERS (W19),PRESBYTERIAN SENIOR SERVICES,50 LENOX AVENUE,NEW YORK,NY,10026,MANHATTAN,917-734-4452,Y,08:00,04:00,08:00,04:00,08:00,04:00,08:00,04:00,08:00,04:00,00:00,00:00,00:00,00:00,40.799593,-73.951421,110.0,9.0,186.0,1083312.0,1015960001.0,Central Harlem South,POINT (-73.951421 40.799593)
69,OLDER ADULT CENTER CONTRACTS,W1505,WESTBETH (W15),GREENWICH HOUSE INC.,155 Bank Street,NEW YORK,NY,10014,MANHATTAN,212-255-5191,Y,00:00,00:00,09:00,06:00,09:00,06:00,09:00,06:00,09:00,05:00,09:00,01:00,00:00,00:00,40.736095,-74.009205,102.0,3.0,79.0,1012047.0,1006390001.0,West Village,POINT (-74.009205 40.736095)
70,LEGAL SERVICES CONTRACTS,1AA01,LSNYBX - LEGAL SERVICES - BX (1AA),LSNY-BRONX CORPORATION,349 EAST 149TH STREET,BRONX,NY,10451,BRONX,917-661-4500,Y,09:00,05:00,09:00,05:00,09:00,05:00,09:00,05:00,09:00,05:00,00:00,00:00,00:00,00:00,40.81667,-73.919959,201.0,17.0,65.0,2000933.0,2023317501.0,Melrose South-Mott Haven North,POINT (-73.919959 40.81667)
71,LEGAL SERVICES CONTRACTS,40A01,JASA LEGAL SERVICES QN (40A),THE JEWISH ASSOCIATION FOR SERVICES FOR THE AGED,97-99 QUEENS BOULEVARD,FLUSHING,NY,11374,QUEENS,718-286-1500,Y,09:00,05:00,09:00,05:00,09:00,05:00,09:00,05:00,09:00,05:00,00:00,00:00,00:00,00:00,40.728595,-73.858133,406.0,29.0,71701.0,,,Rego Park,POINT (-73.858133 40.728595)
72,ELDER ABUSE SERVICES CONTRACTS,1E901,CASC - ELDER JUSTICE - STATEN ISLAND (1E9),COMMUNITY AGENCY FOR SENIOR CITIZENS INC,120 Stuyvesant Place Suite 409,STATEN ISLAND,NY,10301,STATEN ISLAND,718-981-6226,Y,09:00,05:00,09:00,05:00,09:00,05:00,09:00,05:00,09:00,05:00,00:00,00:00,00:00,00:00,40.642992,-74.076954,501.0,49.0,3.0,5000084.0,5000080060.0,West New Brighton-New Brighton-St. George,POINT (-74.076954 40.642992)
73,NATURALLY OCCURING RETIREMENT COMMUNITY CONTRACTS,N6601,EDUCATIONAL ALLIANCE CO OP VILLAGE NORC (N66),THE EDUCATIONAL ALLIANCE INC,465 Grand Street,NEW YORK,NY,10002,MANHATTAN,646-395-4270,Y,09:00,05:00,09:00,05:00,09:00,05:00,09:00,05:00,09:00,05:00,00:00,00:00,00:00,00:00,40.715133,-73.984031,103.0,1.0,1401.0,1004056.0,1003150070.0,Lower East Side,POINT (-73.984031 40.715133)
74,OLDER ADULT CENTER CONTRACTS,C1101,BRONXWORKS CAROLYN MCLAUGHLIN COMMUNITY CENTER -CONCOURSE OAC (C11),BRONXWORKS INC,1130 Grand Concourse,BRONX,NY,10455,BRONX,718-508-3040,Y,09:00,05:00,09:00,05:00,09:00,05:00,09:00,05:00,09:00,05:00,00:00,00:00,00:00,00:00,40.832331,-73.91959,204.0,16.0,18102.0,2002833.0,2024620042.0,East Concourse-Concourse Village,POINT (-73.91959 40.832331)
75,OLDER ADULT CENTER CONTRACTS,W2203,JASA EINSTEIN (W22),THE JEWISH ASSOCIATION FOR SERVICES FOR THE AGED,135 EINSTEIN LOOP,BRONX,NY,10475,BRONX,718-320-2066,Y,08:00,04:00,08:00,04:00,08:00,04:00,08:00,04:00,08:00,04:00,00:00,00:00,00:00,00:00,40.864255,-73.82203,210.0,12.0,302.0,2095160.0,2051350210.0,Co-op City,POINT (-73.82203 40.864255)
76,CASE MANAGEMENT SERVICES CONTRACTS,2MH01,CCNS - CMA - BK 10 11 (2MH),CATHOLIC CHARITIES NEIGHBORHOOD SERVICES INC,6823 Fifth Avenue 3rd Floor,BROOKLYN,NY,11220,BROOKLYN,718-722-6000,Y,08:30,04:30,08:30,04:30,08:30,04:30,08:00,04:30,08:00,04:30,00:00,00:00,00:00,00:00,40.633953,-74.020799,310.0,43.0,130.0,3145313.0,3058650001.0,Bay Ridge,POINT (-74.020799 40.633953)
77,NATURALLY OCCURING RETIREMENT COMMUNITY CONTRACTS,N5201,LINCOLN SQUARE NORC (N52),GODDARD-RIVERSIDE COMMUNITY CENTER,250 W. 66TH STREET,NEW YORK,NY,10023,MANHATTAN,212-724-6720,Y,09:00,05:00,09:00,05:00,09:00,05:00,09:00,05:00,09:00,05:00,00:00,00:00,00:00,00:00,40.77501,-73.98689,107.0,6.0,151.0,1030340.0,1011560020.0,Lincoln Square,POINT (-73.98689 40.77501)
78,OLDER ADULT CENTER CONTRACTS,W1605,JAMES MONROE (W16),INSTITUTE FOR THE PUERTO RICAN HISPANIC ELDERLY INC,1780 Story Avenue,BRONX,NY,10473,BRONX,718-893-3484,Y,08:00,04:00,08:00,04:00,08:00,04:00,08:00,04:00,08:00,04:00,00:00,00:00,00:00,00:00,40.823265,-73.865779,209.0,18.0,42.0,2092748.0,2036370001.0,Soundview-Castle Hill-Clason Point-Harding Park,POINT (-73.865779 40.823265)
79,NATURALLY OCCURING RETIREMENT COMMUNITY CONTRACTS,N5301,HAMILTON MADISON ALFRED SMITH HOUSES NORC (N53),HAMILTON MADISON HOUSE INC,50 Madison Street,NEW YORK,NY,10038,MANHATTAN,212-788-5580,Y,09:00,05:00,09:00,05:00,09:00,05:00,09:00,05:00,09:00,05:00,00:00,00:00,00:00,00:00,40.711958,-73.997825,103.0,1.0,25.0,1077420.0,1001110100.0,Chinatown,POINT (-73.997825 40.711958)
80,NEW YORK CONNECTS CONTRACTS,6C401,PSS NY CONNECTS BK (6C4),PRESBYTERIAN SENIOR SERVICES,1655 Flatbush Avenue,BROOKLYN,NY,11210,BROOKLYN,212-874-6633,Y,09:00,05:00,09:00,05:00,09:00,05:00,09:00,05:00,09:00,05:00,00:00,00:00,00:00,00:00,40.630096,-73.944757,318.0,45.0,776.0,3206459.0,3075790010.0,Flatlands,POINT (-73.944757 40.630096)
81,ELDER ABUSE SERVICES CONTRACTS,1E601,CBN - ELDER JUSTICE - MN (1E6),CARTER BURDEN NETWORK INC.,312 East 109th Street,NEW YORK,NY,10029,MANHATTAN,212-879-7400,Y,09:00,05:00,09:00,05:00,09:00,05:00,09:00,05:00,09:00,05:00,00:00,00:00,00:00,00:00,40.792306,-73.94048,111.0,8.0,170.0,1074278.0,1016800045.0,East Harlem South,POINT (-73.94048 40.792306)
82,OLDER ADULT CENTER CONTRACTS,C4301,HOPE OF ISRAEL SENIOR CITIZENS CENTER (C43),HOPE OF ISRAEL SENIOR CITIZENS CENTER INC,1068 Gerard Avenue,BRONX,NY,10452,BRONX,718-665-8400,Y,09:00,05:00,09:00,05:00,09:00,05:00,09:00,05:00,09:00,05:00,00:00,00:00,00:00,00:00,40.832289,-73.922123,204.0,16.0,195.0,2002944.0,2024780007.0,West Concourse,POINT (-73.922123 40.832289)
83,HOME DELIVERED MEAL SERVICE CONTRACTS,33D01,STANLEY M ISAACS - HDM - MN08 11 (33D),STANLEY M ISAACS NEIGHBORHOOD CENTER INC,415 East 93rd Street,NEW YORK,NY,10128,MANHATTAN,212-360-7620,Y,09:00,05:00,09:00,05:00,09:00,05:00,09:00,05:00,09:00,05:00,00:00,00:00,00:00,00:00,40.780904,-73.945112,108.0,5.0,152.0,1082367.0,1015730001.0,Yorkville,POINT (-73.945112 40.780904)
84,OLDER ADULT CENTER CONTRACTS,W2402,WASHINGTON LEXINGTON SATELLITE (W24),UNION SETTLEMENT ASSOCIATION,1775 THIRD AVENUE,NEW YORK,NY,10029,MANHATTAN,212-828-6115,Y,09:00,05:00,09:00,05:00,09:00,05:00,09:00,05:00,09:00,05:00,00:00,00:00,00:00,00:00,40.786574,-73.948303,111.0,8.0,15602.0,1079203.0,1016470001.0,East Harlem South,POINT (-73.948303 40.786574)
85,CASE MANAGEMENT SERVICES CONTRACTS,3M901,SELFHELP - CMA - MN 4 7 (3M9),SELFHELP COMMUNITY SERVICES INC,520 8 Avenue,NEW YORK,NY,10018,MANHATTAN,212-971-7600,Y,08:00,04:00,08:00,04:00,08:00,04:00,08:00,04:00,08:00,04:00,00:00,00:00,00:00,00:00,40.753612,-73.992417,105.0,3.0,109.0,1083624.0,1007860001.0,Midtown-Midtown South,POINT (-73.992417 40.753612)
86,OLDER ADULT CENTER CONTRACTS,C5803,RAIN BOSTON SECOR OAC (C58),REGIONAL AID FOR INTERIM NEEDS INC,3540 Bivona Street,BRONX,NY,10475,BRONX,718-671-8550,Y,08:00,04:00,08:00,04:00,08:00,04:00,08:00,04:00,08:00,04:00,00:00,00:00,00:00,00:00,40.883026,-73.833227,212.0,12.0,46202.0,2093879.0,2052630070.0,Co-op City,POINT (-73.833227 40.883026)
87,OLDER ADULT CENTER CONTRACTS,C8701,UNIVERSITY SETTLEMENT OAC (C87),UNIVERSITY SETTLEMENT SOCIETY OF NEW YORK,189 Allen Street,NEW YORK,NY,10002,MANHATTAN,212-453-4564,Y,08:00,04:00,08:00,04:00,08:00,04:00,08:00,04:00,08:00,04:00,00:00,00:00,00:00,00:00,40.722133,-73.988964,103.0,1.0,3601.0,1005537.0,1004170001.0,Chinatown,POINT (-73.988964 40.722133)
88,HOME DELIVERED MEAL SERVICE CONTRACTS,27F01,BAY RIDGE - HDM - BK10 11 (27F),BAY RIDGE CENTER INC d/b/a BAY RIDGE CENTER,411 OVINGTON AVENUE,BROOKLYN,NY,11209,BROOKLYN,718-748-0650,Y,09:00,05:00,09:00,05:00,09:00,05:00,09:00,05:00,09:00,05:00,00:00,00:00,00:00,00:00,40.633477,-74.023321,310.0,43.0,130.0,3145772.0,3058730089.0,Bay Ridge,POINT (-74.023321 40.633477)
89,OLDER ADULT CENTER CONTRACTS,W1905,PSS MANHATTANVILLE (W19),PRESBYTERIAN SENIOR SERVICES,530 West 133rd Street,NEW YORK,NY,10027,MANHATTAN,212-862-5562,Y,08:00,04:00,08:00,04:00,08:00,04:00,08:00,04:00,08:00,04:00,00:00,00:00,00:00,00:00,40.818127,-73.954478,109.0,7.0,219.0,1084130.0,1019840001.0,Manhattanville,POINT (-73.954478 40.818127)
90,ELDER ABUSE SERVICES CONTRACTS,1E302,NSHOPP - ELDER JUSTICE - BX (1E3),THE NEIGHBORHOOD SELF-HELP BY OLDER PERSONS PROJECT INC,975 Kelly Street Suite 401,BRONX,NY,10459,BRONX,718-542-0006,Y,09:00,05:00,09:00,05:00,09:00,05:00,09:00,05:00,09:00,05:00,00:00,00:00,00:00,00:00,40.822052,-73.895879,202.0,17.0,87.0,2114693.0,2027037501.0,Longwood,POINT (-73.895879 40.822052)
91,OLDER ADULT CENTER CONTRACTS,C1501,CANAAN SENIOR SERVICE CENTER (C15),CANAAN BAPTIST CHURCH OF CHRIST,1428 5th Avenue,NEW YORK,NY,10035,MANHATTAN,212-876-2638,Y,09:00,05:00,09:00,05:00,09:00,05:00,09:00,05:00,09:00,05:00,00:00,00:00,00:00,00:00,40.80115,-73.946121,110.0,9.0,190.0,1051430.0,1016000021.0,Central Harlem South,POINT (-73.946121 40.80115)
92,NATURALLY OCCURING RETIREMENT COMMUNITY CONTRACTS,N5801,PENN SOUTH NORC (N58),PENN SOUTH SOCIAL SERVICES INC,290 9TH AVENUE,NEW YORK,NY,10001,MANHATTAN,212-243-3670,Y,09:00,05:00,09:00,05:00,09:00,05:00,09:00,05:00,09:00,05:00,00:00,00:00,00:00,00:00,40.748925,-73.999545,104.0,3.0,97.0,1082794.0,1007510001.0,Hudson Yards-Chelsea-Flatiron-Union Square,POINT (-73.999545 40.748925)
93,OLDER ADULT CENTER CONTRACTS,C6902,SAGE CENTER HARLEM (C69),SERVICES AND ADVOCACY FOR GAYLESBIANBISEXUAL AND TRANSGEND,220 West 143rd Street,NEW YORK,NY,10030,MANHATTAN,929-458-0170,Y,09:00,05:00,09:00,05:00,09:00,05:00,09:00,05:00,09:00,05:00,00:00,00:00,00:00,00:00,40.8208,-73.94113,110.0,9.0,232.0,1086084.0,1020280016.0,Central Harlem North-Polo Grounds,POINT (-73.94113 40.8208)
94,CASE MANAGEMENT SERVICES CONTRACTS,2MG01,JASA - CMA - BK 12 14 (2MG),THE JEWISH ASSOCIATION FOR SERVICES FOR THE AGED,2211 CHURCH AVENUE,BROOKLYN,NY,11226,BROOKLYN,212-273-5200,Y,09:00,05:00,09:00,05:00,09:00,05:00,09:00,05:00,09:00,05:00,00:00,00:00,00:00,00:00,40.650424,-73.958175,314.0,40.0,79602.0,3116881.0,3050890071.0,Prospect Lefferts Gardens-Wingate,POINT (-73.958175 40.650424)
95,TRANSPORTATION SERVICES CONTRACTS,36702,NY FOUNDATION - TRAN GROUP RIDES - MN SOUTH (367),NEW YORK FOUNDATION FOR SENIOR CITIZENS INC,404 WEST   54 STREET,NEW YORK,NY,10019,MANHATTAN,212-962-7653,Y,09:00,05:00,09:00,05:00,09:00,05:00,09:00,05:00,09:00,05:00,00:00,00:00,00:00,00:00,40.766197,-73.987636,104.0,3.0,133.0,1026769.0,1010630035.0,Clinton,POINT (-73.987636 40.766197)
96,GERIATRIC MENTAL HEALTH SERVICES CONTRACTS,1G701,JASA - GMH - BX (1G7),THE JEWISH ASSOCIATION FOR SERVICES FOR THE AGED,1490 SOUTHERN BLVD FRNT,BRONX,NY,10460,BRONX,212-273-5200,Y,09:00,05:00,09:00,05:00,09:00,05:00,09:00,05:00,09:00,05:00,00:00,00:00,00:00,00:00,40.833251,-73.890198,203.0,17.0,157.0,2010571.0,2029810014.0,Crotona Park East,POINT (-73.890198 40.833251)
97,NEW YORK CONNECTS CONTRACTS,1C401,NSHOPP - NY CONNECTS - BX (1C4),THE NEIGHBORHOOD SELF-HELP BY OLDER PERSONS PROJECT INC,975 Kelly Street Suite #301,BRONX,NY,10459,BRONX,718-542-0006,Y,09:00,05:00,09:00,05:00,09:00,05:00,09:00,05:00,09:00,05:00,00:00,00:00,00:00,00:00,40.822052,-73.895879,202.0,17.0,87.0,2114693.0,2027037501.0,Longwood,POINT (-73.895879 40.822052)
98,NATURALLY OCCURING RETIREMENT COMMUNITY CONTRACTS,N5303,CONFUCIOUS PLAZA NORC (N53),HAMILTON MADISON HOUSE INC,185 PARK ROW,NEW YORK,NY,10038,MANHATTAN,212-349-3724,Y,09:00,05:00,09:00,05:00,09:00,05:00,09:00,05:00,09:00,05:00,00:00,00:00,00:00,00:00,40.713141,-74.000115,103.0,1.0,27.0,1077407.0,1001170001.0,Chinatown,POINT (-74.000115 40.713141)
99,TRANSPORTATION SERVICES CONTRACTS,61401,FEJOST - TRAN INDIVIDUAL RIDES - CITYWIDE (614),Fejost LLC,1401 WEBSTER AVENUE,BRONX,NY,10456,BRONX,914-413-5313,Y,09:00,05:00,09:00,05:00,09:00,05:00,09:00,05:00,09:00,05:00,00:00,00:00,00:00,00:00,40.836291,-73.907377,204.0,16.0,17702.0,2119686.0,2028870147.0,East Concourse-Concourse Village,POINT (-73.907377 40.836291)
