,OBJECTID,RWCOMPKEY,RWCOMPKEYPARENT,LOW_ADDRESS,FROM_ADDRESS,TO_ADDRESS,LFROM,LTO,RFROM,RTO,SIFID,SIFCODE,ROADNAME,AVDIR,AVPRETYPE,AVSTNAME,AVSTTYPE,AVSUFDIR,DIR,STRNAME,TYPE,SIFIDLOW,LOCROSSSIF,LOCROSSPR,LOCROSSNA,LOCROSSSU,SIFIDHI,HICROSSSIF,HICROSSPR,HICROSSNA,HICROSSSU,ONE_WAY,FTIMP,TFIMP,SPEED,MUNI_NAME,COUNDIST,MAIN_DIST,MAPNO,OWNER_NAME,OWNER_ABRV,MAIN_RESP,MAIN_ABRV,CORE_CLASS,CLASS_ABRV,STCL_CLASS,ZIP_LEFT,ZIP_RIGHT,COMPKEY,COMPTYPE,UNITID,UNITID2,ENTERED_BY,ENTERED_ON,UPDATED_BY,UPDATED_ON,ROUTE_LBL,LENGTH,ALIAS1_DIR,ALIAS1_STRNAME,ALIAS1_TYPE,ALIAS1_SIFID,ALIAS2_DIR,ALIAS2_STRNAME,ALIAS2_TYPE,ALIAS2_SIFID,ALIAS3_DIR,ALIAS3_STRNAME,ALIAS3_TYPE,ALIAS3_SIFID,ALIAS4_DIR,ALIAS4_STRNAME,ALIAS4_TYPE,ALIAS4_SIFID,GLOBALID,SHAPELEN
0,1,24074,0,6300,6300,6399,6301,6399,6300,6398,8665,9887,SERENITY CT, , ,SERENITY,CT, , ,SERENITY,CT,1550,1557, ,DELLAFAY,DR,8594,9811, ,DEAD END, , ,0.24600001,0.24600001,25,LOUISVILLE,2,EAST,MAN20D,METRO,METR,METRO,METR,LOCAL,LOCAL,7,40219,40219,270349312,68,9887,2,ADMIN,1801/01/01 00:00:00+00,ADMIN,2007/08/21 00:00:00+00, ,325.14, , , ,0, , , ,0, , , ,0, , , ,0,{496EE316-2749-408F-AD2D-16DD49C99017},325.140305619271
1,2,20311,0,1600,1600,1619,1601,1619,1600,1618,5926,6570,S 28TH ST,S, ,28TH,ST, ,S,28TH,ST,2854,2934,W,HILL,ST,2470,2499,W,GAULBERT,AVE, ,0.33899999,0.33899999,25,LOUISVILLE,1,WEST,MAL17F,METRO,METR,METRO,METR,LOCAL,LOCAL,7,40211,40211,270344558,68,6570,21,ADMIN,1801/01/01 00:00:00+00,ADMIN,2007/08/21 00:00:00+00, ,447.05, , , ,0, , , ,0, , , ,0, , , ,0,{AA2CAA18-473D-416D-8973-C74538F2BB31},447.052294375334
2,3,21109,0,1700,1700,1705,1701,1705,1700,1704,473,0458,BEECH ST, , ,BEECH,ST, , ,BEECH,ST,6487,7212, ,WILSON,AVE,10596,D596, ,DR WILLIAM G WEATHERS,DR, ,0.41499999,0.41499999,25,LOUISVILLE,1,WEST,MAL17F,METRO,METR,METRO,METR,LOCAL,LOCAL,7,40211,40211,270345921,68,0458,11,ADMIN,2006/05/23 00:00:00+00,ADMIN,2007/08/21 00:00:00+00, ,547.83, , , ,0, , , ,0, , , ,0, , , ,0,{A9B57033-3F9C-4CA7-8ED3-0F17D5DF6C14},552.489593373372
3,4,20926,0,505,505,519,505,519,506,518,2442,2470,GARDEN DR, , ,GARDEN,DR, , ,GARDEN,DR,13394,5391, ,RAINBOW,DR,4702,5128, ,POPPY,WAY, ,0.07345799,0.07345799,25,LOUISVILLE,9,EAST,MAL20D,METRO,METR,METRO,METR,PRIMARY COLLECTOR,PRICOL,5,40206,40206,270342861,68,2470,6,ADMIN,1801/01/01 00:00:00+00,RREYNOLDS,2017/05/18 00:00:00+00, ,193.9290886, , , ,0, , , ,0, , , ,0, , , ,0,{F40EEA69-C8E4-4A2B-983D-670A93C87BFE},193.929088602638
4,5,19036,0,730,730,799,731,799,730,798,4573,4974,PARKWAY DR, , ,PARKWAY,DR, , ,PARKWAY,DR,4162,4476, ,MOUNT CLAIRE,AVE,8594,9811, ,DEAD END, , ,0.095,0.095,25,LOUISVILLE,15,WEST,MAM19A,METRO,METR,METRO,METR,LOCAL,LOCAL,7,40217,40217,270343420,68,4974,12,ADMIN,1801/01/01 00:00:00+00,ADMIN,2007/08/21 00:00:00+00, ,125.9, , , ,0, , , ,0, , , ,0, , , ,0,{D0515DFE-8CF3-450F-9470-A1C35303ACA7},125.862060314308
5,6,3788,0,603,603,635,603,635,604,634,13360,4118,MACON AVE, , ,MACON,AVE, , ,MACON,AVE,6494,7222, ,WINCHESTER,RD,3107,3230, ,HANOVER,RD, ,0.257,0.257,25,ST MATTHEWS,9,EAST,MAL21C,ST MATTHEWS,STMA,4TH CLASS CITY,4CLC,LOCAL,LOCAL,7,40207,40207,270327704,68,4118,12,ADMIN,1801/01/01 00:00:00+00,ADMIN,2007/08/21 00:00:00+00, ,338.82, , , ,0, , , ,0, , , ,0, , , ,0,{7AA93390-F010-4BB5-B9D5-FACDCA900157},338.804711451247
6,7,32812,0,10600,10600,10699,10600,10698,10601,10699,2082,E389,NORTON COMMONS WALK, , ,NORTON COMMONS,WALK, , ,NORTON COMMONS,WALK,8594,9811, ,DEAD END, ,11923,D887, ,NORTON COMMONS,BLVD, ,0.5589272,0.5589272,3,LOUISVILLE,16,EAST,MAJ23F,PRIVATE,PRIV,NON-METRO,NMET,PEDESTRIAN WALKWAY,WLKWAY,8,40059,40059,270394154,68,E389,1,ADMIN,2007/01/12 00:00:00+00,RREYNOLDS,2017/06/07 00:00:00+00, ,245.92796753, , , ,0, , , ,0, , , ,0, , , ,0,{05F74BE3-298A-4433-99BC-56FF1C5400B3},253.23959922781
7,8,29731,0,10312,10312,10399,10313,10399,10312,10398,6942,7752,GREENFIELD PARK RD, , ,GREENFIELD PARK,RD, , ,GREENFIELD PARK,RD,10150,D104, ,BROADMANOR,LN,4312,4658, ,MATTHEWS,RD, ,0.19000728,0.19000728,25,LOUISVILLE,14,WEST,MAN15H,METRO,METR,METRO,METR,LOCAL,LOCAL,7,40258,40258,270354921,68,7752,7,ADMIN,2006/12/12 00:00:00+00,EBULLITT,2011/10/06 00:00:00+00, ,250.80960561, , , ,0, , , ,0, , , ,0, , , ,0,{537CA197-3AAD-4EF7-9666-B24F0437BEA9},246.022354272051
8,9,31978,0,11100,11100,11124,11101,11123,11100,11124,12052,E021,LITTLE SPRING BLVD, , ,LITTLE SPRING,BLVD, , ,LITTLE SPRING,BLVD,12086,E061, ,EXPEDITION,TRL,12082,E058, ,RADLEIGH,LN, ,0.866,0.866,35,LOUISVILLE,22,WEST,MAO23G,METRO,METR,METRO,METR,LOCAL,LOCAL,7,40291,40291,270360572,68,E021,4,ADMIN,2005/09/22 00:00:00+00,ADMIN,2007/08/21 00:00:00+00, ,1142.93, , , ,0, , , ,0, , , ,0, , , ,0,{95CDD850-DFD2-4615-8D62-D3EB0A9CA262},1138.74030202586
9,10,4002,0,2500,2500,2515,2501,2515,2500,2514,2363,2383,FOXY POISE RD, , ,FOXY POISE,RD, , ,FOXY POISE,RD,5721,6338, ,SIR JOHNS,CT,12955,3997, ,LYNNBROOK,DR, ,0.43099999,0.43099999,25,ST REGIS PARK,18,EAST,MAL22E,ST REGIS PARK,STRP,4TH CLASS CITY,4CLC,LOCAL,LOCAL,7,40220,40220,270327800,68,2383,1,ADMIN,1801/01/01 00:00:00+00,ADMIN,2007/08/21 00:00:00+00, ,569.02, , , ,0, , , ,0, , , ,0, , , ,0,{E5420224-C8FF-4CE9-9F44-72BBDB7C714D},569.021660489176
10,11,28686,0,5603,5603,5699,5604,5698,5603,5699,8033,9150,VEVIA PL, , ,VEVIA,PL, , ,VEVIA,PL,8032,9149, ,LAVENIA,LN,8594,9811, ,DEAD END, , ,0.32600001,0.32600001,25,LOUISVILLE,14,WEST,MAP16A,METRO,METR,METRO,METR,LOCAL,LOCAL,7,40272,40272,270353611,68,9150,1,ADMIN,1801/01/01 00:00:00+00,ADMIN,2007/08/21 00:00:00+00, ,430.49, , , ,0, , , ,0, , , ,0, , , ,0,{80264E70-DCB2-4F40-9494-2CEAED573B59},430.489571190654
11,12,24460,0,7111,7111,7123,7111,7123,7112,7122,4793,5238,YORKTOWN TER, , ,YORKTOWN,TER, , ,YORKTOWN,TER,6706,7473, ,PATRICK HENRY,CT,6706,7473, ,PATRICK HENRY,CT, ,0.20100001,0.20100001,25,LOUISVILLE,13,WEST,MAN18F,PRIVATE,PRIV,NON-METRO,NMET,LOCAL,LOCAL,7,40214,40214,270349526,68,5238,1,ADMIN,2006/03/31 00:00:00+00,ADMIN,2007/08/21 00:00:00+00, ,264.94, , , ,0, , , ,0, , , ,0, , , ,0,{F5ECE29F-A8F0-4C37-BC9C-AC8069D76456},264.9438727299
12,13,831,0,1900,1900,1999,1901,1999,1900,1998,13479,8695,ROLLING HILLS TRL, , ,ROLLING HILLS,TRL, , ,ROLLING HILLS,TRL,8594,9811, ,DEAD END, ,7635,8693, ,WINDING VIEW,TRL, ,0.82756471,0.82756471,25,LOUISVILLE,20,EAST,MAM26A,METRO,METR,METRO,METR,LOCAL,LOCAL,7,40023,40023,270325289,68,8695,1,ADMIN,1801/01/01 00:00:00+00,EBULLITT,2011/09/02 00:00:00+00, ,1092.38541814, , , ,0, , , ,0, , , ,0, , , ,0,{2D4CDFCF-58E3-4A2C-B13D-D74E65DC057B},1134.475331905
13,14,6358,0,7480,7480,7499,7481,7499,7480,7498,6413,7132,WESTPORT RD, , ,WESTPORT,RD, , ,WESTPORT,RD,2709,2774, ,LYNDON,LN,3756,3996, ,LYNN,WAY, ,0.04644688,0.04644688,45,GRAYMOOR/DEVONDALE,7,EAST,MAK22G,STATE,STAT,STATE,STAT,MINOR ARTERIAL,MINART,4,40222,40222,270334371,68,7132,58,ADMIN,1801/01/01 00:00:00+00,RREYNOLDS,2022/12/23 00:00:00+00,KY-1447,143.05640466, ,KY-1447, ,13827, , , ,0, , , ,0, , , ,0,{5D150008-FF41-4294-A3DB-F648FA2BF320},143.05640465936
14,15,33016,0,200,200,299,201,299,200,298,12597,E473,CHADWICK GLEN PL, , ,CHADWICK GLEN,PL, , ,CHADWICK GLEN,PL,8594,9811, ,DEAD END, ,12595,E471, ,CHADWICK GLEN,CIR, ,0.23748247,0.23748247,25,LOUISVILLE,20,EAST,MAL27E,PRIVATE,PRIV,NON-METRO,NMET,LOCAL,LOCAL,7,40245,40245,270516242,68,E473,1,ADMIN,2006/12/26 00:00:00+00,BALLEN,2019/07/22 00:00:00+00, ,313.47686674, , , ,0, , , ,0, , , ,0, , , ,0,{C7AC711B-4A39-47F3-8DBF-94F731174271},315.941242579981
15,16,13323,0,7000,7000,7099,7000,7098,7001,7099,293,0285,MOUNTAIN CT, , ,MOUNTAIN,CT, , ,MOUNTAIN,CT,8594,9811, ,DEAD END, ,540,0527, ,BILLIE,LN, ,0.09,0.09,25,LOUISVILLE,24,WEST,MAN21E,METRO,METR,METRO,METR,LOCAL,LOCAL,7,40219,40219,270336459,68,0285,1,ADMIN,1801/01/01 00:00:00+00,ADMIN,2007/08/21 00:00:00+00, ,119.04, , , ,0, , , ,0, , , ,0, , , ,0,{946E890E-BBAC-4B1C-9AFB-AD56FEE918C3},119.041764722218
16,17,29715,0,7200,7200,7207,7201,7207,7200,7206,5193,5709,RUTLEDGE RD, , ,RUTLEDGE,RD, , ,RUTLEDGE,RD,12290,7050, ,WOOD,RD,1847,1860, ,EDENROC,LN, ,0.47099999,0.47099999,25,LOUISVILLE,12,WEST,MAN15D,METRO,METR,METROCTR,MCTR,SECONDARY COLLECTOR,SECCOL,6,40258,40258,270355656,68,5709,6,ADMIN,1801/01/01 00:00:00+00,RREYNOLDS,2017/05/12 00:00:00+00, ,1243.77, , , ,0, , , ,0, , , ,0, , , ,0,{7A43D2CE-DF03-45C8-9D46-71676244E520},1243.59460817602
17,18,1927,0,2700,2700,2706,2700,2706,2701,2705,1237,1232,COLONEL DR, , ,COLONEL,DR, , ,COLONEL,DR,5235,5772, ,SABERDEE,DR,5291,5841, ,SAUREL,DR, ,0.227,0.227,25,PLANTATION,7,EAST,MAK22D,PLANTATION,PLAN,5TH CLASS CITY,5CLC,LOCAL,LOCAL,7,40242,40242,270330945,68,1232,3,ADMIN,1801/01/01 00:00:00+00,EBULLITT,2009/02/23 00:00:00+00, ,299.46, , , ,0, , , ,0, , , ,0, , , ,0,{43BEF7EE-56F1-482C-A3DF-429469AA025B},299.461908168092
18,19,21464,0,13236,13270,13236,13269,13237,13270,13236,8725,9955,I 65 SOUTH, ,I,65, ,S, ,I 65 SOUTH, ,8765,9998, ,I 65 RAMP, ,8765,9998, ,I 65 RAMP, ,FT,0.38692031,-1.0,55,LOUISVILLE,15,WEST,MAM18B,FEDERAL,FEDL,STATE,STAT,EXPRESSWAY,XWAY,1,40217,40209,270344783,68,9955,10,ADMIN,1801/01/01 00:00:00+00,ADMIN,2013/03/06 00:00:00+00,I-65,1872.69, , , ,0, , , ,0, , , ,0, , , ,0,{7DB7ACF8-C6E1-46BB-B813-0E077FB0D85F},1872.69431430721
19,20,22467,0,3642,3642,3679,3643,3679,3642,3678,1195,1181,CLIFF AVE, , ,CLIFF,AVE, , ,CLIFF,AVE,889,0915, ,CAMDEN,AVE,474,0459, ,BEECHER,ST, ,0.25799999,0.25799999,25,LOUISVILLE,15,WEST,MAM18E,METRO,METR,METRO,METR,LOCAL,LOCAL,7,40215,40215,270348263,68,1181,6,ADMIN,1801/01/01 00:00:00+00,ADMIN,2007/08/21 00:00:00+00, ,340.68, , , ,0, , , ,0, , , ,0, , , ,0,{28062F75-1E1A-4F94-AB2A-333C0371EAF9},340.679980913518
20,21,31566,0,300,300,319,300,318,301,319,6800,7592,BLAIR CT, , ,BLAIR,CT, , ,BLAIR,CT,8594,9811, ,DEAD END, ,6813,7608, ,TRISTA,DR, ,0.176,0.176,25,MIDDLETOWN,17,EAST,MAL24C,MIDDLETOWN,MIDD,4TH CLASS CITY,4CLC,LOCAL,LOCAL,7,40243,40243,270326278,68,7592,2,ADMIN,1801/01/01 00:00:00+00,ADMIN,2007/08/21 00:00:00+00, ,232.25, , , ,0, , , ,0, , , ,0, , , ,0,{E214B1E8-BB05-4D70-B1DE-A771F5350DD7},232.248135168105
21,22,800,0,16316,16316,16499,16317,16499,16316,16498,8199,9351,EASTWOOD CUT OFF RD, , ,EASTWOOD CUT OFF,RD, , ,EASTWOOD CUT OFF,RD,14179,E990, ,MAPLE VALLEY,RD,5383,5940, ,SHELBYVILLE,RD, ,0.68461443,0.68461443,25,LOUISVILLE,11,EAST,MAL26E,STATE,STAT,STATE,STAT,LOCAL,LOCAL,7,40245,40245,270326502,68,9351,4,ADMIN,2004/02/03 00:00:00+00,RREYNOLDS,2023/12/21 00:00:00+00,KY-2841,903.69104773, ,KY-2841, ,13901, , , ,0, , , ,0, , , ,0,{E4E78F73-EE65-4A8D-8762-84E83A2180AB},903.691047731909
22,23,33246,0,2600,2600,2649,2600,2648,2601,2649,12691,E568,HAMILTON SPRINGS DR, , ,HAMILTON SPRINGS,DR, , ,HAMILTON SPRINGS,DR,12695,E572, ,MCKINLEY RIDGE,DR,12693,E570, ,MADISON TRACE,CIR, ,0.08374362,0.08374362,25,LOUISVILLE,19,EAST,MAK25E,METRO,METR,METRO,METR,LOCAL,LOCAL,7,40245,40245,270525370,68,E568,2,ADMIN,2006/03/21 00:00:00+00,BALLEN,2024/02/12 00:00:00+00, ,110.54158121, , , ,0, , , ,0, , , ,0, , , ,0,{2A3B0A6A-153E-489D-B817-7BA281A894F0},110.541581209708
23,25,34849,800,16200,16200,16315,16201,16315,16200,16314,8199,9351,EASTWOOD CUT OFF RD, , ,EASTWOOD CUT OFF,RD, , ,EASTWOOD CUT OFF,RD,1835,1847, ,EASTWOOD FISHERVILLE,RD,14179,E990, ,MAPLE VALLEY,RD, ,1.01932874,1.01932874,25,LOUISVILLE,11,EAST,MAL26E,STATE,STAT,STATE,STAT,LOCAL,LOCAL,7,40245,40245,270652464,68,9351,5,ADMIN,2004/02/03 00:00:00+00,RREYNOLDS,2023/12/21 00:00:00+00,KY-2841,1345.51393459, ,KY-2841, ,13901, , , ,0, , , ,0, , , ,0,{07BB5712-41AB-4A20-B01E-BED5C2461D34},1345.51393458702
24,30,34872,33542,6300,6300,6309,6301,6309,6300,6308,12797,E674,COMMERCE PARK CT, , ,COMMERCE PARK,CT, , ,COMMERCE PARK,CT,8594,9811, ,DEAD END, ,12798,E675, ,COMMERCE PARK,DR, ,0.07164248,0.07164248,25,LOUISVILLE,13,WEST,MAO18A,PRIVATE,PRIV,NON-METRO,NMET,LOCAL,LOCAL,7,40118,40118,270653687,68,E674,2,ADMIN,2006/12/13 00:00:00+00,EBULLITT,2011/08/26 00:00:00+00, ,94.56806868, , , ,0, , , ,0, , , ,0, , , ,0,{362BD59D-328D-4A97-A049-5F2C1CFFD44D},94.5680686810432
25,31,33542,0,6310,6310,6399,6311,6399,6310,6398,12797,E674,COMMERCE PARK CT, , ,COMMERCE PARK,CT, , ,COMMERCE PARK,CT,12798,E675, ,COMMERCE PARK,DR,4228,4553, ,NEW CUT,RD, ,0.24274914,0.24274914,25,LOUISVILLE,13,WEST,MAO18A,PRIVATE,PRIV,NON-METRO,NMET,LOCAL,LOCAL,7,40118,40118,270542996,68,E674,1,ADMIN,2006/12/13 00:00:00+00,RREYNOLDS,2023/12/21 00:00:00+00, ,320.42886875, , , ,0, , , ,0, , , ,0, , , ,0,{85762812-A393-4709-9858-466EF0FFEB3C},320.428868749564
26,32,34873,0,6400,6400,6499,6400,6498,6401,6499,12798,E675,COMMERCE PARK DR, , ,COMMERCE PARK,DR, , ,COMMERCE PARK,DR,12797,E674, ,COMMERCE PARK,CT,8594,9811, ,DEAD END, , ,0.30932483,0.30932483,25,LOUISVILLE,13,WEST,MAO18A,PRIVATE,PRIV,NON-METRO,NMET,LOCAL,LOCAL,7,40118,40118,270653688,68,E675,1,EBULLITT,2011/08/26 00:00:00+00,EBULLITT,2011/08/26 00:00:00+00, ,408.30877733, , , ,0, , , ,0, , , ,0, , , ,0,{0BD966CB-D0F1-423D-9E6F-7E85AD48550B},408.308777324986
27,33,34875,0,1100,1100,1199,1101,1199,1100,1198,12706,E583,LIBERTY HILL WAY, , ,LIBERTY HILL,WAY, , ,LIBERTY HILL,WAY,12705,E582, ,HARTLAND,AVE,14177,E989, ,DUNTREATH,LN, ,0.13561768,0.13561768,25,LOUISVILLE,11,EAST,MAL25G,METRO,METR,METRO,METR,LOCAL,LOCAL,7,40299,40299,270653689,68,E583,3,EBULLITT,2011/08/26 00:00:00+00,RREYNOLDS,2019/05/16 00:00:00+00, ,179.01533331, , , ,0, , , ,0, , , ,0, , , ,0,{4C0A8678-50EC-4E57-8F75-E51E5312FE6D},179.015333312603
28,35,33268,0,1152,1152,1199,1153,1199,1152,1198,12704,E581,HELM PLACE LN, , ,HELM PLACE,LN, , ,HELM PLACE,LN,12705,E582, ,HARTLAND,AVE,12700,E577, ,SIGNATURE POINT,DR, ,0.0681546,0.0681546,25,LOUISVILLE,11,EAST,MAL25G,METRO,METR,METRO,METR,LOCAL,LOCAL,7,40299,40299,270526165,68,E581,2,ADMIN,2006/04/10 00:00:00+00,RREYNOLDS,2019/05/15 00:00:00+00, ,89.96406898, , , ,0, , , ,0, , , ,0, , , ,0,{ADFDB341-A505-4882-98AF-39D8F6971521},89.9640689820803
29,37,34878,0,14300,14300,14399,14301,14399,14300,14398,12705,E582,HARTLAND AVE, , ,HARTLAND,AVE, , ,HARTLAND,AVE,12706,E583, ,LIBERTY HILL,WAY,12704,E581, ,HELM PLACE,LN, ,0.23758686,0.23758686,25,LOUISVILLE,11,EAST,MAL25G,METRO,METR,METRO,METR,LOCAL,LOCAL,7,40299,40299,270653692,68,E582,1,EBULLITT,2011/08/26 00:00:00+00,RREYNOLDS,2019/05/16 00:00:00+00, ,313.61466052, , , ,0, , , ,0, , , ,0, , , ,0,{097C6471-BCB2-40E7-BDD0-BF0756D9F458},313.614660516094
30,38,663,0,209,209,212,210,212,209,211,8239,9409,N ENGLISH STATION RD,N, ,ENGLISH STATION,RD, ,N,ENGLISH STATION,RD,12755,E632, ,DEVELOPMENT,WAY,7984,9093, ,DATA VAULT,DR, ,0.17029134,0.17029134,35,MIDDLETOWN,19,EAST,MAL24D,METRO,METR,METRO,METR,MINOR ARTERIAL,MINART,4,40223,40223,270325181,68,9409,3,ADMIN,2006/02/01 00:00:00+00,BALLEN,2020/08/10 00:00:00+00, ,524.49732569, , , ,0, , , ,0, , , ,0, , , ,0,{C6AA6AFC-E803-4C10-86F9-85091F518146},524.49732569101
31,39,34881,663,100,100,208,100,208,101,207,8239,9409,N ENGLISH STATION RD,N, ,ENGLISH STATION,RD, ,N,ENGLISH STATION,RD,5383,5940, ,SHELBYVILLE,RD,12755,E632, ,DEVELOPMENT,WAY, ,0.17651398,0.17651398,35,MIDDLETOWN,19,EAST,MAL24D,METRO,METR,METRO,METR,MINOR ARTERIAL,MINART,4,40223,40223,270653708,68,9409,14,ADMIN,2006/02/01 00:00:00+00,RREYNOLDS,2015/05/21 00:00:00+00, ,543.66305852, , , ,0, , , ,0, , , ,0, , , ,0,{DD80E32A-03F4-4EBB-95B1-42BF431AFFF9},549.754688358816
32,40,34882,0,13000,13000,13099,13000,13098,13001,13099,12755,E632,DEVELOPMENT WAY, , ,DEVELOPMENT,WAY, , ,DEVELOPMENT,WAY,8594,9811, ,DEAD END, ,8239,9409,N,ENGLISH STATION,RD, ,0.98549316,0.98549316,25,MIDDLETOWN,19,EAST,MAL24D,PRIVATE,PRIV,NON-METRO,NMET,LOCAL,LOCAL,7,40243,40243,270653709,68,E632,1,EBULLITT,2011/08/29 00:00:00+00,RREYNOLDS,2015/05/21 00:00:00+00, ,1300.85096915, , , ,0, , , ,0, , , ,0, , , ,0,{095A6D9A-ED0E-4790-ADBE-39F3C595519D},1298.50260188539
33,46,34829,11341,8100,8100,8119,8101,8119,8100,8118,248,0231,AVANTI WAY, , ,AVANTI,WAY, , ,AVANTI,WAY,2204,2192, ,FERNVIEW,RD,8594,9811, ,DEAD END, , ,0.10581147,0.10581147,25,LOUISVILLE,23,WEST,MAN22E,METRO,METR,METRO,METR,LOCAL,LOCAL,7,40291,40291,270651970,68,0231,5,ADMIN,1801/01/01 00:00:00+00,EBULLITT,2011/06/29 00:00:00+00, ,139.67113841, , , ,0, , , ,0, , , ,0, , , ,0,{AC613C90-77BA-4C7B-B7BA-DC23E6C02773},139.609352508392
34,47,11341,0,8120,8120,8126,8121,8125,8120,8126,248,0231,AVANTI WAY, , ,AVANTI,WAY, , ,AVANTI,WAY,8594,9811, ,DEAD END, ,7963,9069, ,AVANTI,PL, ,0.20751124,0.20751124,25,LOUISVILLE,22,WEST,MAN22E,METRO,METR,METRO,METR,LOCAL,LOCAL,7,40291,40291,270339159,68,0231,2,ADMIN,1801/01/01 00:00:00+00,EBULLITT,2011/06/29 00:00:00+00, ,273.91483612, , , ,0, , , ,0, , , ,0, , , ,0,{DBAF719D-E51C-4B88-9E83-D596286FF54B},272.32605471402
35,48,34832,0,14300,14300,14399,14301,14399,14300,14398,14177,E989,DUNTREATH LN, , ,DUNTREATH,LN, , ,DUNTREATH,LN,12706,E583, ,LIBERTY HILL,WAY,12704,E581, ,HELM PLACE,LN, ,0.2340675,0.2340675,25,LOUISVILLE,11,EAST,MAL25G,METRO,METR,METRO,METR,LOCAL,LOCAL,7,40299,40299,270651973,68,E989,1,EBULLITT,2011/06/30 00:00:00+00,JPRICE,2021/12/08 00:00:00+00, ,308.96909348, , , ,0, , , ,0, , , ,0, , , ,0,{9EC7FEBF-B202-4000-B36C-9C950DACDBBD},308.969093481148
36,54,35037,0,1300,1300,1399,1301,1399,1300,1398,2312,2323,FRANKFORT AVE, , ,FRANKFORT,AVE, , ,FRANKFORT,AVE,14285,F029, ,RIVER SHORE,DR,7259,8199, ,RIVER,RD, ,0.18237965,0.18237965,25,LOUISVILLE,4,EAST,MAK19H,PRIVATE,PRIV,NON-METRO,NMET,LOCAL,LOCAL,7,40206,40206,270663120,68,2323,67,EBULLITT,2012/07/24 00:00:00+00,RREYNOLDS,2020/02/14 00:00:00+00, ,240.74114241, , , ,0, , , ,0, , , ,0, , , ,0,{88ACA216-20DE-4786-A0C6-E54E378BD78E},239.714288897351
37,55,35039,0,1500,1500,1599,1501,1599,1500,1598,14285,F029,RIVER SHORE DR, , ,RIVER SHORE,DR, , ,RIVER SHORE,DR,14287,F030, ,DOCK VIEW,DR,2312,2323, ,FRANKFORT,AVE, ,0.50109759,0.50109759,25,LOUISVILLE,4,EAST,MAK19H,PRIVATE,PRIV,NON-METRO,NMET,LOCAL,LOCAL,7,40206,40206,270663121,68,F029,1,EBULLITT,2012/07/24 00:00:00+00,BALLEN,2017/09/15 00:00:00+00, ,661.44882118, , , ,0, , , ,0, , , ,0, , , ,0,{AE28996A-9148-4053-9406-78841DFC63E3},666.392661991016
38,56,35040,0,1600,1600,1699,1601,1699,1600,1698,14285,F029,RIVER SHORE DR, , ,RIVER SHORE,DR, , ,RIVER SHORE,DR,2312,2323, ,FRANKFORT,AVE,14289,F031, ,MARINAS EDGE,WAY, ,0.55329437,0.55329437,25,LOUISVILLE,4,EAST,MAK19H,PRIVATE,PRIV,NON-METRO,NMET,LOCAL,LOCAL,7,40206,40206,270663122,68,F029,2,EBULLITT,2012/07/24 00:00:00+00,BALLEN,2017/09/15 00:00:00+00, ,730.34856547, , , ,0, , , ,0, , , ,0, , , ,0,{4A5EFCFD-5E88-46D1-8D00-188EBACFB007},732.466833588842
39,57,35044,14950,1100,1100,1499,1101,1499,1100,1498,7259,8199,RIVER RD, , ,RIVER,RD, , ,RIVER,RD,7566,8619,E,WITHERSPOON,ST,14287,F030, ,DOCK VIEW,DR, ,0.81607137,0.81607137,35,LOUISVILLE,4,EAST,MAK19G,METRO,METR,METROCTR,MCTR,MINOR ARTERIAL,MINART,4,40206,40206,270663123,68,8199,51,ADMIN,2007/01/23 00:00:00+00,RREYNOLDS,2020/02/14 00:00:00+00, ,2513.49980556, , , ,0, , , ,0, , , ,0, , , ,0,{E1AC373A-4F9E-4EF1-A4DD-1EC08558FB7B},2672.13586369798
40,58,35045,0,1200,1200,1299,1201,1299,1200,1298,14287,F030,DOCK VIEW DR, , ,DOCK VIEW,DR, , ,DOCK VIEW,DR,14289,F031, ,MARINAS EDGE,WAY,14285,F029, ,RIVER SHORE,DR, ,0.3433589,0.3433589,25,LOUISVILLE,4,EAST,MAK19H,PRIVATE,PRIV,NON-METRO,NMET,LOCAL,LOCAL,7,40206,40206,270663124,68,F030,1,EBULLITT,2012/07/24 00:00:00+00,BALLEN,2017/09/15 00:00:00+00, ,453.23374925, , , ,0, , , ,0, , , ,0, , , ,0,{45342525-5825-4385-9456-349901DBBAD3},450.737523129156
41,59,35046,0,1300,1300,1399,1301,1399,1300,1398,14287,F030,DOCK VIEW DR, , ,DOCK VIEW,DR, , ,DOCK VIEW,DR,14285,F029, ,RIVER SHORE,DR,7259,8199, ,RIVER,RD, ,0.18672739,0.18672739,25,LOUISVILLE,4,EAST,MAK19H,PRIVATE,PRIV,NON-METRO,NMET,LOCAL,LOCAL,7,40206,40206,270663125,68,F030,2,EBULLITT,2012/07/24 00:00:00+00,RREYNOLDS,2020/02/14 00:00:00+00, ,246.48015604, , , ,0, , , ,0, , , ,0, , , ,0,{F9895C17-AB4A-48AF-9B97-4B28EE325941},244.88631904807
42,60,35047,14656,1550,1550,1599,1551,1599,1550,1598,7259,8199,RIVER RD, , ,RIVER,RD, , ,RIVER,RD,2312,2323, ,FRANKFORT,AVE,14289,F031, ,MARINAS EDGE,WAY, ,0.24652168,0.24652168,35,LOUISVILLE,4,EAST,MAK19H,METRO,METR,METROCTR,MCTR,MINOR ARTERIAL,MINART,4,40206,40206,270663126,68,8199,52,ADMIN,1801/01/01 00:00:00+00,RREYNOLDS,2020/02/14 00:00:00+00, ,759.28677927, , , ,0, , , ,0, , , ,0, , , ,0,{1A4113C4-BF42-4343-BEE0-E13B6B1678B2},759.286779274636
43,61,22312,0,0,0,0,0,0,0,0,8762,9995,I 264 RAMP, ,I,264 RAMP, , , ,I 264 RAMP, ,12326,9952, ,I 264 WEST, ,490,0478, ,BELLS,LN,FT,0.45876815,-1.0,55,LOUISVILLE,1,WEST,MAL17G,FEDERAL,FEDL,STATE,STAT,INTERSTATE RAMP,INRAMP,2,40211,40211,270347763,68,9995,113,ADMIN,2007/02/28 00:00:00+00,RREYNOLDS,2022/09/26 00:00:00+00,I-264,1009.29, , , ,0, , , ,0, , , ,0, , , ,0,{175A6E84-901E-4409-AF77-18C689597778},1009.28992993913
44,62,22235,0,4024,4024,4199,4024,4198,4025,4199,490,0478,BELLS LN, , ,BELLS,LN, , ,BELLS,LN,2282,2285,S,41ST,ST,10304,D272, ,OXY,RD, ,1.09486739,1.09486739,25,LOUISVILLE,1,WEST,MAL17G,STATE,STAT,STATE,STAT,LOCAL,LOCAL,7,40211,40211,270347743,68,0478,4,ADMIN,2006/10/31 00:00:00+00,EBULLITT,2012/01/09 00:00:00+00,KY-2056,1445.224959, ,KY-2056, ,13879, , , ,0, , , ,0, , , ,0,{E4F4A378-8296-414D-BF9E-8184CB16A2FA},1445.22495899625
45,63,22232,0,4200,4200,4699,4200,4698,4201,4699,490,0478,BELLS LN, , ,BELLS,LN, , ,BELLS,LN,10304,D272, ,OXY,RD,8594,9811, ,DEAD END, , ,3.40461528,3.40461528,25,LOUISVILLE,1,WEST,MAL17G,STATE,STAT,STATE,STAT,LOCAL,LOCAL,7,40211,40211,270347741,68,0478,3,ADMIN,2006/10/31 00:00:00+00,EBULLITT,2012/01/09 00:00:00+00,KY-2056,4494.09216458, ,KY-2056, ,13879, , , ,0, , , ,0, , , ,0,{7CE88C31-018F-467D-87F2-8CE3731E69F8},4494.09216457721
46,64,9426,0,2900,2900,3351,2901,3351,2900,3350,8755,9987,HARRODS OLD TRCE, , ,HARRODS OLD,TRCE, , ,HARRODS OLD,TRCE,8594,9811, ,DEAD END, ,8594,9811, ,DEAD END, , ,2.19467437,2.19467437,25,LOUISVILLE,11,EAST,MAM24D,PRIVATE,PRIV,NON-METRO,NMET,LOCAL,LOCAL,7,40299,40299,270334837,68,9987,1,ADMIN,2005/09/06 00:00:00+00,EBULLITT,2011/04/27 00:00:00+00, ,2896.97016651, , , ,0, , , ,0, , , ,0, , , ,0,{B762E9E7-DCA9-4287-990F-1949D564015F},2896.97016651355
47,68,18083,0,1600,1600,1699,1601,1699,1600,1698,4227,4552,NEWBURG RD, , ,NEWBURG,RD, , ,NEWBURG,RD,5356,5912, ,SHADY,LN,1546,1552, ,DEERWOOD,AVE, ,0.12899999,0.12899999,35,LOUISVILLE,8,EAST,MAL19H,STATE,STAT,STATE,STAT,MINOR ARTERIAL,MINART,4,40205,40205,270345222,68,4552,13,ADMIN,1801/01/01 00:00:00+00,EBULLITT,2008/09/25 00:00:00+00,KY-1703,397.64, ,KY-1703, ,13843, , , ,0, , , ,0, , , ,0,{DE71DCA4-E2E7-4D10-BC7B-70772B8A0BA9},397.636793880174
48,71,32826,0,10000,10000,10099,10001,10099,10000,10098,1282,E393,VALLEY FARMS BLVD, , ,VALLEY FARMS,BLVD, , ,VALLEY FARMS,BLVD,1738,E239, ,RENAISSANCE VALLEY,WAY,13291,E240, ,VALKYRIE,WAY, ,0.34276088,0.34276088,25,LOUISVILLE,25,WEST,MAO16C,METRO,METR,METRO,METR,LOCAL,LOCAL,7,40272,40272,270395213,68,E393,3,ADMIN,2005/03/08 00:00:00+00,EBULLITT,2011/06/08 00:00:00+00, ,452.44435884, , , ,0, , , ,0, , , ,0, , , ,0,{14AF6B8A-FB1D-460C-8E1D-2E24549699F3},439.649546649258
49,72,3990,0,1200,1200,1218,1201,1217,1200,1218,4387,4748,OLD CANNONS LN, , ,OLD CANNONS,LN, , ,OLD CANNONS,LN,5662,6271, ,SENECA PARK,RD,3116,3241, ,PARK HILLS,DR, ,0.64499998,0.64499998,25,LOUISVILLE,9,EAST,MAL21E,METRO,METR,METRO,METR,LOCAL,LOCAL,7,40207,40207,270327793,68,4748,4,ADMIN,1801/01/01 00:00:00+00,ADMIN,2007/08/21 00:00:00+00, ,851.98, , , ,0, , , ,0, , , ,0, , , ,0,{69F79317-D586-4CCC-8BAE-6200820FA0ED},851.979706139943
